[{"OBJECT_NAME":"STARLINK-37002","OBJECT_ID":"2026-049Y","EPOCH":"2026-03-28T04:00:01.999584","MEAN_MOTION":15.80817406,"ECCENTRICITY":0.00014993,"INCLINATION":97.2845,"RA_OF_ASC_NODE":107.3501,"ARG_OF_PERICENTER":104.8575,"MEAN_ANOMALY":76.2708,"EPHEMERIS_TYPE":0,"CLASSIFICATION_TYPE":"U","NORAD_CAT_ID":68164,"ELEMENT_SET_NO":999,"REV_AT_EPOCH":359,"BSTAR":9.2350708e-5,"MEAN_MOTION_DOT":0.00017585,"MEAN_MOTION_DDOT":0},{"OBJECT_NAME":"STARLINK-36971","OBJECT_ID":"2026-049Z","EPOCH":"2026-03-28T04:00:01.999584","MEAN_MOTION":15.80770433,"ECCENTRICITY":0.0001348,"INCLINATION":97.2843,"RA_OF_ASC_NODE":107.3527,"ARG_OF_PERICENTER":93.4407,"MEAN_ANOMALY":96.1903,"EPHEMERIS_TYPE":0,"CLASSIFICATION_TYPE":"U","NORAD_CAT_ID":68165,"ELEMENT_SET_NO":999,"REV_AT_EPOCH":359,"BSTAR":9.5211991e-5,"MEAN_MOTION_DOT":0.00018096,"MEAN_MOTION_DDOT":0},{"OBJECT_NAME":"STARLINK-36273","OBJECT_ID":"2026-049AA","EPOCH":"2026-03-28T04:00:01.999584","MEAN_MOTION":15.75241111,"ECCENTRICITY":0.00010017,"INCLINATION":97.2841,"RA_OF_ASC_NODE":107.3451,"ARG_OF_PERICENTER":93.7852,"MEAN_ANOMALY":76.7008,"EPHEMERIS_TYPE":0,"CLASSIFICATION_TYPE":"U","NORAD_CAT_ID":68166,"ELEMENT_SET_NO":999,"REV_AT_EPOCH":360,"BSTAR":-0.00077029449,"MEAN_MOTION_DOT":-0.00113755,"MEAN_MOTION_DDOT":0},{"OBJECT_NAME":"STARLINK-36969","OBJECT_ID":"2026-050A","EPOCH":"2026-03-28T05:05:36.678912","MEAN_MOTION":15.80933229,"ECCENTRICITY":9.984e-5,"INCLINATION":53.1599,"RA_OF_ASC_NODE":189.0141,"ARG_OF_PERICENTER":67.3473,"MEAN_ANOMALY":292.7655,"EPHEMERIS_TYPE":0,"CLASSIFICATION_TYPE":"U","NORAD_CAT_ID":68167,"ELEMENT_SET_NO":999,"REV_AT_EPOCH":340,"BSTAR":0.0010843701,"MEAN_MOTION_DOT":0.00219455,"MEAN_MOTION_DDOT":0},{"OBJECT_NAME":"STARLINK-36984","OBJECT_ID":"2026-050B","EPOCH":"2026-03-28T05:04:31.717344","MEAN_MOTION":15.80935021,"ECCENTRICITY":8.924e-5,"INCLINATION":53.1599,"RA_OF_ASC_NODE":189.0093,"ARG_OF_PERICENTER":51.2029,"MEAN_ANOMALY":308.9073,"EPHEMERIS_TYPE":0,"CLASSIFICATION_TYPE":"U","NORAD_CAT_ID":68168,"ELEMENT_SET_NO":999,"REV_AT_EPOCH":340,"BSTAR":0.001031225,"MEAN_MOTION_DOT":0.00208413,"MEAN_MOTION_DDOT":0},{"OBJECT_NAME":"STARLINK-37077","OBJECT_ID":"2026-050C","EPOCH":"2026-03-28T05:03:27.043488","MEAN_MOTION":15.80938179,"ECCENTRICITY":0.00014063,"INCLINATION":53.1599,"RA_OF_ASC_NODE":189.0041,"ARG_OF_PERICENTER":43.7972,"MEAN_ANOMALY":316.3162,"EPHEMERIS_TYPE":0,"CLASSIFICATION_TYPE":"U","NORAD_CAT_ID":68169,"ELEMENT_SET_NO":999,"REV_AT_EPOCH":340,"BSTAR":0.0011885458,"MEAN_MOTION_DOT":0.00241276,"MEAN_MOTION_DDOT":0},{"OBJECT_NAME":"STARLINK-37003","OBJECT_ID":"2026-050D","EPOCH":"2026-03-28T06:33:24.270048","MEAN_MOTION":15.80972653,"ECCENTRICITY":0.0001124,"INCLINATION":53.16,"RA_OF_ASC_NODE":188.6822,"ARG_OF_PERICENTER":73.4308,"MEAN_ANOMALY":286.6838,"EPHEMERIS_TYPE":0,"CLASSIFICATION_TYPE":"U","NORAD_CAT_ID":68170,"ELEMENT_SET_NO":999,"REV_AT_EPOCH":341,"BSTAR":0.0010562284,"MEAN_MOTION_DOT":0.00213994,"MEAN_MOTION_DDOT":0},{"OBJECT_NAME":"STARLINK-37034","OBJECT_ID":"2026-050E","EPOCH":"2026-03-28T06:32:19.460544","MEAN_MOTION":15.80933852,"ECCENTRICITY":9.674e-5,"INCLINATION":53.1599,"RA_OF_ASC_NODE":188.6769,"ARG_OF_PERICENTER":61.7241,"MEAN_ANOMALY":298.3879,"EPHEMERIS_TYPE":0,"CLASSIFICATION_TYPE":"U","NORAD_CAT_ID":68171,"ELEMENT_SET_NO":999,"REV_AT_EPOCH":341,"BSTAR":0.0010375026,"MEAN_MOTION_DOT":0.00209706,"MEAN_MOTION_DDOT":0},{"OBJECT_NAME":"STARLINK-37031","OBJECT_ID":"2026-050F","EPOCH":"2026-03-28T06:31:14.787552","MEAN_MOTION":15.80979064,"ECCENTRICITY":0.00010541,"INCLINATION":53.1597,"RA_OF_ASC_NODE":188.6719,"ARG_OF_PERICENTER":71.632,"MEAN_ANOMALY":288.4818,"EPHEMERIS_TYPE":0,"CLASSIFICATION_TYPE":"U","NORAD_CAT_ID":68172,"ELEMENT_SET_NO":999,"REV_AT_EPOCH":341,"BSTAR":0.0012133803,"MEAN_MOTION_DOT":0.00246962,"MEAN_MOTION_DDOT":0},{"OBJECT_NAME":"STARLINK-37076","OBJECT_ID":"2026-050G","EPOCH":"2026-03-28T06:30:10.015200","MEAN_MOTION":15.80972643,"ECCENTRICITY":0.00010613,"INCLINATION":53.1597,"RA_OF_ASC_NODE":188.6669,"ARG_OF_PERICENTER":91.9524,"MEAN_ANOMALY":268.162,"EPHEMERIS_TYPE":0,"CLASSIFICATION_TYPE":"U","NORAD_CAT_ID":68173,"ELEMENT_SET_NO":999,"REV_AT_EPOCH":341,"BSTAR":0.0011448814,"MEAN_MOTION_DOT":0.00232518,"MEAN_MOTION_DDOT":0},{"OBJECT_NAME":"STARLINK-37078","OBJECT_ID":"2026-050H","EPOCH":"2026-03-28T06:29:04.947360","MEAN_MOTION":15.80952113,"ECCENTRICITY":9.471e-5,"INCLINATION":53.1597,"RA_OF_ASC_NODE":188.6617,"ARG_OF_PERICENTER":97.7784,"MEAN_ANOMALY":262.3346,"EPHEMERIS_TYPE":0,"CLASSIFICATION_TYPE":"U","NORAD_CAT_ID":68174,"ELEMENT_SET_NO":999,"REV_AT_EPOCH":341,"BSTAR":0.0012582865,"MEAN_MOTION_DOT":0.00256084,"MEAN_MOTION_DDOT":0},{"OBJECT_NAME":"STARLINK-36886","OBJECT_ID":"2026-050J","EPOCH":"2026-03-28T06:28:00.333984","MEAN_MOTION":15.80927826,"ECCENTRICITY":9.481e-5,"INCLINATION":53.1596,"RA_OF_ASC_NODE":188.6563,"ARG_OF_PERICENTER":62.5354,"MEAN_ANOMALY":297.5766,"EPHEMERIS_TYPE":0,"CLASSIFICATION_TYPE":"U","NORAD_CAT_ID":68175,"ELEMENT_SET_NO":999,"REV_AT_EPOCH":341,"BSTAR":0.0010806299,"MEAN_MOTION_DOT":0.0021862,"MEAN_MOTION_DDOT":0},{"OBJECT_NAME":"STARLINK-36905","OBJECT_ID":"2026-050K","EPOCH":"2026-03-28T06:26:55.407840","MEAN_MOTION":15.80989032,"ECCENTRICITY":0.00010882,"INCLINATION":53.1596,"RA_OF_ASC_NODE":188.652,"ARG_OF_PERICENTER":74.7351,"MEAN_ANOMALY":285.3792,"EPHEMERIS_TYPE":0,"CLASSIFICATION_TYPE":"U","NORAD_CAT_ID":68176,"ELEMENT_SET_NO":999,"REV_AT_EPOCH":341,"BSTAR":0.0011998692,"MEAN_MOTION_DOT":0.00244239,"MEAN_MOTION_DDOT":0},{"OBJECT_NAME":"STARLINK-36668","OBJECT_ID":"2026-050L","EPOCH":"2026-03-28T06:25:50.575872","MEAN_MOTION":15.8098911,"ECCENTRICITY":9.228e-5,"INCLINATION":53.1596,"RA_OF_ASC_NODE":188.6464,"ARG_OF_PERICENTER":21.8644,"MEAN_ANOMALY":338.2418,"EPHEMERIS_TYPE":0,"CLASSIFICATION_TYPE":"U","NORAD_CAT_ID":68177,"ELEMENT_SET_NO":999,"REV_AT_EPOCH":341,"BSTAR":0.0012212973,"MEAN_MOTION_DOT":0.00248746,"MEAN_MOTION_DDOT":0},{"OBJECT_NAME":"STARLINK-36677","OBJECT_ID":"2026-050M","EPOCH":"2026-03-28T06:24:45.753408","MEAN_MOTION":15.80988084,"ECCENTRICITY":7.702e-5,"INCLINATION":53.1596,"RA_OF_ASC_NODE":188.6407,"ARG_OF_PERICENTER":55.9884,"MEAN_ANOMALY":304.1212,"EPHEMERIS_TYPE":0,"CLASSIFICATION_TYPE":"U","NORAD_CAT_ID":68178,"ELEMENT_SET_NO":999,"REV_AT_EPOCH":341,"BSTAR":0.0011736072,"MEAN_MOTION_DOT":0.00238715,"MEAN_MOTION_DDOT":0},{"OBJECT_NAME":"STARLINK-37052","OBJECT_ID":"2026-050N","EPOCH":"2026-03-28T06:23:40.972416","MEAN_MOTION":15.80992997,"ECCENTRICITY":9.849e-5,"INCLINATION":53.1592,"RA_OF_ASC_NODE":188.6365,"ARG_OF_PERICENTER":89.2795,"MEAN_ANOMALY":270.8341,"EPHEMERIS_TYPE":0,"CLASSIFICATION_TYPE":"U","NORAD_CAT_ID":68179,"ELEMENT_SET_NO":999,"REV_AT_EPOCH":341,"BSTAR":0.0013667812,"MEAN_MOTION_DOT":0.00279517,"MEAN_MOTION_DDOT":0}]
